MEAN_MOTION;ECCENTRICITY;INCLINATION;RA_OF_ASC_NODE;ARG_OF_PERICENTER;MEAN_ANOMALY;BSTAR;MEAN_MOTION_DOT;MEAN_MOTION_DDOT;TYPE
14.30792508;4.81E-5;44.9953;187.547;285.8019;74.2773;8.3108E-5;8.0E-7;0;Orbcomm
14.30792969;4.84E-5;44.9953;182.6386;280.3479;79.7312;8.9678E-5;9.7E-7;0;Orbcomm
14.30793534;5.03E-5;44.9952;178.0574;276.0675;84.0113;9.5432E-5;1.12E-6;0;Orbcomm
14.30793726;5.17E-5;44.9952;176.094;274.7291;85.3495;9.3643E-5;1.08E-6;0;Orbcomm
14.30793869;5.2E-5;44.9952;174.4578;272.1773;87.9013;8.9851E-5;9.8E-7;0;Orbcomm
14.30793945;5.19E-5;44.9952;173.8034;271.7499;88.3287;8.9884E-5;9.8E-7;0;Orbcomm
14.30794194;5.42E-5;44.9951;169.8766;268.0324;92.046;7.6065E-5;6.1E-7;0;Orbcomm
14.30794243;5.43E-5;44.9951;169.2222;268.0793;91.999;7.4358E-5;5.7E-7;0;Orbcomm
14.30794428;5.76E-5;44.9951;164.641;264.87;95.208;5.5465E-5;7.0E-8;0;Orbcomm
14.30794523;5.91E-5;44.9951;160.7141;263.4216;96.6562;4.0114E-5;-3.4E-7;0;Orbcomm
14.30794677;6.17E-5;44.9952;157.4418;262.8948;97.1828;3.8467E-5;-3.8E-7;0;Orbcomm
14.30794769;6.26E-5;44.9952;155.8056;261.4687;98.6088;3.8717E-5;-3.7E-7;0;Orbcomm
14.30794963;6.52E-5;44.9952;152.5333;261.0604;99.0167;4.3734E-5;-2.4E-7;0;Orbcomm
14.30795003;6.54E-5;44.9952;151.8788;260.4308;99.6464;4.4113E-5;-2.3E-7;0;Orbcomm
14.30795322;6.83E-5;44.9952;147.2976;259.3864;100.6905;5.649E-5;1.0E-7;0;Orbcomm
14.30795412;6.91E-5;44.9952;145.6615;259.0347;101.042;5.9913E-5;1.9E-7;0;Orbcomm
14.30795712;7.15E-5;44.9952;141.7347;257.9182;102.1584;7.0709E-5;4.7E-7;0;Orbcomm
14.30795753;7.21E-5;44.9952;141.0804;259.923;100.1534;7.1523E-5;4.9E-7;0;Orbcomm
14.30795974;7.42E-5;44.9951;136.8264;260.8143;99.2618;7.1965E-5;5.0E-7;0;Orbcomm
14.30796209;7.66E-5;44.995;132.2452;261.4566;98.6193;6.6036E-5;3.5E-7;0;Orbcomm
14.3079629;7.8E-5;44.995;130.2817;261.8108;98.2649;6.0656E-5;2.1E-7;0;Orbcomm
14.30796337;7.83E-5;44.9949;129.3;261.8583;98.2174;5.8961E-5;1.6E-7;0;Orbcomm
14.30796454;7.84E-5;44.9949;127.6639;262.1031;97.9725;5.6771E-5;1.0E-7;0;Orbcomm
14.30796553;7.96E-5;44.9949;125.7004;262.5853;97.4902;5.1268E-5;-4.0E-8;0;Orbcomm
14.30796761;8.02E-5;44.9949;123.0825;263.0141;97.0613;4.8724E-5;-1.1E-7;0;Orbcomm
14.30796885;8.13E-5;44.9949;121.1191;263.5895;96.4858;4.4854E-5;-2.1E-7;0;Orbcomm
14.30797283;8.25E-5;44.9949;116.5377;263.8874;96.1877;4.4098E-5;-2.3E-7;0;Orbcomm
14.30797315;8.27E-5;44.9949;116.2105;263.9516;96.1235;4.5233E-5;-2.0E-7;0;Orbcomm
14.30797663;8.42E-5;44.995;111.6291;264.3437;95.7312;4.6665E-5;-1.6E-7;0;Orbcomm
14.30797778;8.45E-5;44.995;110.3201;264.0728;96.0021;4.8225E-5;-1.2E-7;0;Orbcomm
14.30798043;8.54E-5;44.9951;107.0478;264.9503;95.1245;5.4894E-5;5.0E-8;0;Orbcomm
14.30798291;8.5E-5;44.9951;104.4299;265.8056;94.2692;6.3133E-5;2.7E-7;0;Orbcomm
14.3079843;8.6E-5;44.9952;102.4665;266.418;93.6567;6.6659E-5;3.6E-7;0;Orbcomm
14.30798787;8.62E-5;44.9953;97.8852;267.2831;92.7916;7.6932E-5;6.4E-7;0;Orbcomm
14.30798812;8.64E-5;44.9953;97.558;267.1183;92.9563;7.806E-5;6.7E-7;0;Orbcomm
14.30799169;8.63E-5;44.9953;92.9767;268.1053;91.9693;8.5193E-5;8.5E-7;0;Orbcomm
14.30799239;8.65E-5;44.9953;91.9949;266.9328;93.1419;8.4214E-5;8.3E-7;0;Orbcomm
14.30799351;8.59E-5;44.9953;90.6861;267.1774;92.8973;8.5739E-5;8.7E-7;0;Orbcomm
14.30799477;8.54E-5;44.9954;88.3954;269.2852;90.7895;8.3676E-5;8.1E-7;0;Orbcomm
14.30799535;8.51E-5;44.9954;87.0864;268.3557;91.7191;7.9298E-5;7.0E-7;0;Orbcomm
14.30799594;8.48E-5;44.9954;85.7775;268.4351;91.6397;7.6035E-5;6.1E-7;0;Orbcomm
14.30799737;8.52E-5;44.9955;83.4869;268.9937;91.0811;7.1222E-5;4.8E-7;0;Orbcomm
14.30800039;8.33E-5;44.9955;79.2328;269.7377;90.3373;6.1123E-5;2.2E-7;0;Orbcomm
14.30800098;8.31E-5;44.9955;78.5783;269.7232;90.3518;6.0154E-5;1.9E-7;0;Orbcomm
14.30800442;8.14E-5;44.9956;74.3242;270.2095;89.8657;5.1817E-5;-3.0E-8;0;Orbcomm
14.30800468;8.1E-5;44.9957;73.6697;269.6436;90.4317;4.8648E-5;-1.1E-7;0;Orbcomm
14.30800779;7.91E-5;44.9958;69.4157;270.4395;89.636;4.4272E-5;-2.3E-7;0;Orbcomm
14.30800914;7.75E-5;44.9959;67.7795;270.3842;89.6915;4.4606E-5;-2.2E-7;0;Orbcomm
14.30801164;7.83E-5;44.996;64.8344;270.4929;89.5827;4.6564E-5;-1.7E-7;0;Orbcomm
14.3080133;7.69E-5;44.9961;62.8711;270.4788;89.5969;4.9745E-5;-8.0E-8;0;Orbcomm
14.3080158;7.71E-5;44.9963;60.2532;270.5299;89.5458;5.6388E-5;9.0E-8;0;Orbcomm
14.30801965;7.61E-5;44.9965;55.6721;270.2273;89.8485;6.7668E-5;3.9E-7;0;Orbcomm
14.30801988;7.59E-5;44.9965;55.3449;270.2207;89.8551;6.7758E-5;3.9E-7;0;Orbcomm
14.3080234;7.36E-5;44.9966;50.7638;270.2495;89.8266;7.7934E-5;6.6E-7;0;Orbcomm
14.308024;7.32E-5;44.9967;49.4549;269.8597;90.2164;7.8107E-5;6.7E-7;0;Orbcomm
14.30802673;7.23E-5;44.9967;46.1826;268.6595;91.4168;8.3419E-5;8.1E-7;0;Orbcomm
14.30802823;7.08E-5;44.9968;44.2193;268.2161;91.8603;8.441E-5;8.3E-7;0;Orbcomm
14.3080302;7.09E-5;44.9968;41.2743;267.6549;92.4216;8.0871E-5;7.4E-7;0;Orbcomm
14.30803355;6.81E-5;44.9969;36.6932;266.4328;93.6439;7.3371E-5;5.4E-7;0;Orbcomm
14.30803636;6.58E-5;44.9969;32.112;264.1197;95.9573;6.0866E-5;2.1E-7;0;Orbcomm
14.30803937;6.45E-5;44.997;27.8581;261.8757;98.2015;5.2062E-5;-2.0E-8;0;Orbcomm
14.30804082;6.3E-5;44.997;25.8948;260.6068;99.4706;4.8626E-5;-1.1E-7;0;Orbcomm
14.3080424;6.32E-5;44.9971;22.6224;258.8749;101.2026;4.1016E-5;-3.1E-7;0;Orbcomm
14.30804439;6.3E-5;44.9972;19.6775;257.0444;103.0331;3.98E-5;-3.5E-7;0;Orbcomm
14.30804581;6.34E-5;44.9972;18.0413;255.5681;104.5094;4.2221E-5;-2.8E-7;0;Orbcomm
14.30804992;6.39E-5;44.9973;13.4602;252.908;107.1695;5.3517E-5;2.0E-8;0;Orbcomm
14.30805499;6.52E-5;44.9973;8.8792;250.4398;109.6376;7.3266E-5;5.4E-7;0;Orbcomm
14.30805714;6.48E-5;44.9973;7.5704;249.6497;110.4279;8.2424E-5;7.8E-7;0;Orbcomm
14.30806068;6.68E-5;44.9973;4.2982;246.4934;113.5841;9.3322E-5;1.07E-6;0;Orbcomm
14.30806227;6.67E-5;44.9973;2.9894;245.956;114.1216;9.8545E-5;1.21E-6;0;Orbcomm
14.30806509;6.82E-5;44.9972;359.7172;243.3347;116.7428;0.00010165;1.29E-6;0;Orbcomm
14.30806656;6.89E-5;44.9972;358.4083;242.2903;117.7873;0.00010471;1.37E-6;0;Orbcomm
14.30806935;7.13E-5;44.997;353.5;239.7922;120.2852;9.4174E-5;1.09E-6;0;Orbcomm
14.30807117;7.43E-5;44.9969;349.9005;237.4285;122.6489;8.2109E-5;7.7E-7;0;Orbcomm
14.30807311;7.69E-5;44.9969;346.9555;236.6395;123.4376;7.3515E-5;5.5E-7;0;Orbcomm
14.30807424;7.84E-5;44.9968;345.3193;235.7952;124.2819;6.8411E-5;4.1E-7;0;Orbcomm
14.30807721;8.28E-5;44.9967;340.7382;234.651;125.4258;5.5174E-5;6.0E-8;0;Orbcomm
14.30807746;8.28E-5;44.9967;340.4109;234.6529;125.4239;5.4809E-5;5.0E-8;0;Orbcomm
14.30808046;8.69E-5;44.9966;336.8113;233.7388;126.3377;5.1421E-5;-4.0E-8;0;Orbcomm
14.30808358;9.12E-5;44.9966;332.8846;233.4158;126.6604;5.2324E-5;-1.0E-8;0;Orbcomm
14.30808512;9.24E-5;44.9965;330.9212;233.6594;126.4166;5.3484E-5;2.0E-8;0;Orbcomm
14.30808771;9.62E-5;44.9965;327.3216;234.4943;125.5813;5.7239E-5;1.2E-7;0;Orbcomm
14.30809231;0.0001018;44.9964;322.0859;234.8261;125.2489;7.135E-5;4.9E-7;0;Orbcomm
14.30809262;0.000102;44.9964;321.7587;234.7339;125.3411;7.2414E-5;5.2E-7;0;Orbcomm
14.30809603;0.0001061;44.9964;318.4864;235.5659;124.5086;8.2239E-5;7.8E-7;0;Orbcomm
14.30809749;0.0001072;44.9963;316.8503;235.8477;124.2267;8.5875E-5;8.7E-7;0;Orbcomm
14.30809749;0.0001072;44.9963;316.8503;235.8477;124.2267;8.5875E-5;8.7E-7;0;Orbcomm
14.30810074;0.0001138;44.9963;313.905;235.003;125.0709;9.2398E-5;1.05E-6;0;Orbcomm
14.30810246;0.0001152;44.9962;312.269;235.2022;124.8715;9.5368E-5;1.12E-6;0;Orbcomm
14.30810289;0.0001159;44.9962;311.9417;234.8746;125.1991;9.5752E-5;1.13E-6;0;Orbcomm
14.30810689;0.0001211;44.9961;307.6877;235.448;124.6251;9.5002E-5;1.11E-6;0;Orbcomm
14.30810966;0.000126;44.996;304.7425;235.9006;124.172;9.095E-5;1.01E-6;0;Orbcomm
14.30811104;0.0001277;44.996;303.1064;236.3236;123.7487;8.7554E-5;9.2E-7;0;Orbcomm
14.30811403;0.0001335;44.9959;299.1794;237.1295;122.9422;7.5699E-5;6.0E-7;0;Orbcomm
14.30811773;0.0001419;44.9958;291.9802;239.8037;120.2667;5.0055E-5;-7.0E-8;0;Orbcomm
14.30812106;0.0001482;44.9958;286.4171;242.0815;117.9881;4.5473E-5;-2.0E-7;0;Orbcomm
14.30812082;0.000151;44.9958;284.4538;242.6383;117.4309;3.9754E-5;-3.5E-7;0;Orbcomm
14.30812166;0.0001547;44.9958;281.5085;243.9241;116.1445;3.8241E-5;-3.9E-7;0;Orbcomm
14.30812191;0.0001552;44.9958;281.1812;243.978;116.0905;3.9356E-5;-3.6E-7;0;Orbcomm
14.30812273;0.0001565;44.9958;279.5451;244.6405;115.4278;4.2622E-5;-2.7E-7;0;Orbcomm
14.30812414;0.0001592;44.9958;276.5999;246.0933;113.9745;4.8159E-5;-1.2E-7;0;Orbcomm
14.3081248;0.0001603;44.9958;274.9638;246.93;113.1376;5.0191E-5;-7.0E-8;0;Orbcomm
14.30812786;0.0001655;44.9958;270.7097;248.5771;111.4898;6.0982E-5;2.1E-7;0;Orbcomm
14.30812834;0.000166;44.9958;270.3825;248.725;111.3418;6.2802E-5;2.6E-7;0;Orbcomm
14.30813224;0.0001699;44.9957;265.8013;250.9027;109.1635;7.3157E-5;5.4E-7;0;Orbcomm
14.30813366;0.0001721;44.9957;264.1652;251.8774;108.1884;7.4501E-5;5.7E-7;0;Orbcomm
14.30813578;0.0001737;44.9956;261.2202;253.2575;106.8079;7.2865E-5;5.3E-7;0;Orbcomm
14.30813787;0.0001762;44.9956;259.2567;254.2872;105.7779;7.5609E-5;6.0E-7;0;Orbcomm
14.30813962;0.0001779;44.9955;256.639;255.4521;104.6127;6.8824E-5;4.2E-7;0;Orbcomm
14.30814174;0.0001805;44.9955;253.3666;257.0839;102.9805;5.9962E-5;1.9E-7;0;Orbcomm
14.30814272;0.0001814;44.9954;251.7305;258.0181;102.046;5.4356E-5;4.0E-8;0;Orbcomm
14.30814615;0.0001844;44.9954;247.1492;260.2068;99.8569;4.6702E-5;-1.6E-7;0;Orbcomm
14.30815032;0.0001868;44.9954;242.568;262.8121;97.2512;4.7693E-5;-1.4E-7;0;Orbcomm
14.30815151;0.0001886;44.9954;240.9317;263.7806;96.2824;4.8069E-5;-1.3E-7;0;Orbcomm
14.30815379;0.00019;44.9954;238.9684;264.6873;95.3756;5.3202E-5;1.0E-8;0;Orbcomm
14.30815499;0.0001902;44.9954;237.9867;265.2243;94.8385;5.6275E-5;9.0E-8;0;Orbcomm
14.30815631;0.000192;44.9954;236.0233;266.3837;93.6789;5.8302E-5;1.4E-7;0;Orbcomm
14.30815816;0.0001931;44.9954;233.7327;267.2378;92.8246;6.2872E-5;2.6E-7;0;Orbcomm
14.30816023;0.0001949;44.9954;230.133;269.0054;91.0568;6.6729E-5;3.7E-7;0;Orbcomm
14.30816024;0.0001951;44.9954;229.8058;269.1671;90.895;6.6653E-5;3.6E-7;0;Orbcomm
14.30816054;0.0001959;44.9953;228.8242;269.9419;90.1202;6.6484E-5;3.6E-7;0;Orbcomm
